OBJECT_NAME,OBJECT_ID,EPOCH,MEAN_MOTION,ECCENTRICITY,INCLINATION,RA_OF_ASC_NODE,ARG_OF_PERICENTER,MEAN_ANOMALY,EPHEMERIS_TYPE,CLASSIFICATION_TYPE,NORAD_CAT_ID,ELEMENT_SET_NO,REV_AT_EPOCH,BSTAR,MEAN_MOTION_DOT,MEAN_MOTION_DDOT
ES'HAIL 2,2018-090A,2026-07-14T20:12:58.492224,1.00270700,.0002192,0.0180,39.9084,119.2005,102.6091,0,U,43700,999,2795,0,.135E-5,0
GEO-KOMPSAT-2A,2018-100A,2026-07-14T17:27:00.252000,1.00269956,.0001961,0.0287,108.8702,352.7689,220.9550,0,U,43823,999,2790,0,-.352E-5,0
GSAT-11,2018-100B,2026-07-14T18:54:06.117120,1.00271013,.000766,0.0533,253.9605,203.7241,192.4874,0,U,43824,999,2775,0,-.85E-6,0
GSAT-7A,2018-105A,2026-07-14T21:01:54.492960,1.00270983,.0001658,0.0838,91.4396,19.7511,199.7612,0,U,43864,999,2772,0,.18E-6,0
COSMOS 2533,2018-107A,2026-07-14T18:52:58.725120,1.00269723,.0001084,0.0399,118.1956,141.8973,25.7778,0,U,43867,999,2772,0,-.46E-6,0
TJS-3,2018-110A,2026-07-13T18:23:41.806176,1.00272063,.0002512,2.6109,80.1709,89.7880,185.8222,0,U,43874,999,2768,0,-.223E-5,0
ZHONGXING-2D,2019-001A,2026-07-14T19:10:04.585152,1.00270942,.0000413,0.0550,231.9164,89.4577,28.7797,0,U,43920,999,5435,0,-.346E-5,0
HELLAS-SAT 4 & SGS-1,2019-007A,2026-07-14T06:45:29.330208,1.00271532,.00057278,0.0672,125.5173,21.8726,285.1324,0,U,44034,999,2763,0,.146E-5,0
GSAT-31,2019-007B,2026-07-14T20:40:20.784288,1.00270649,.0000792,0.0135,94.7454,137.2078,58.7161,0,U,44035,999,2724,0,.117E-5,0
NUSANTARA SATU,2019-009A,2026-07-13T12:36:13.139712,1.00270313,.00046786,0.0316,124.8301,6.3551,135.2754,0,U,44048,999,2703,0,-.239E-5,0
ZHONGXING-6C,2019-012A,2026-07-14T19:10:12.074304,1.00271082,.0014488,0.0911,75.6765,337.9731,297.0120,0,U,44067,999,2701,0,-.344E-5,0
WGS 10 (USA 291),2019-014A,2026-07-14T10:16:52.539168,1.00270690,.00003114,0.0177,45.2250,233.8921,227.6921,0,U,44071,999,2689,0,.4E-6,0
TIANLIAN 2-01,2019-017A,2026-07-14T19:10:38.635392,1.00270824,.0001474,0.6090,83.0573,80.4768,133.7976,0,U,44076,999,2692,0,-.115E-5,0
ARABSAT-6A,2019-021A,2026-07-14T20:58:38.588736,1.00263066,.0002406,0.0446,7.1811,247.6292,23.0597,0,U,44186,999,2643,0,.144E-5,0
BEIDOU-3 IGSO-1,2019-023A,2026-07-13T11:51:18.021312,1.00283496,.00257348,58.7323,37.3789,224.1077,326.8166,0,U,44204,999,747,0,-.204E-5,0
BEIDOU-2 G8,2019-027A,2026-07-14T19:14:11.690880,1.00271788,.0009723,1.7252,74.4886,282.0956,9.1465,0,U,44231,999,2635,0,-.257E-5,0
YAMAL 601,2019-031A,2026-07-14T20:40:20.715168,1.00271049,.0002253,0.0183,84.4967,24.0984,183.2013,0,U,44307,999,2620,0,.111E-5,0
AT&T T-16,2019-034A,2026-07-14T19:46:46.069248,1.00268430,.0000616,0.0157,70.7114,248.2150,169.5701,0,U,44333,999,2591,0,-.123E-5,0
EUTELSAT 7C,2019-034B,2026-07-14T13:26:51.685152,1.00270205,.000313,0.0769,179.8524,279.4611,41.8320,0,U,44334,999,711,0,.4E-6,0
BEIDOU-3 IGSO-2,2019-035A,2026-07-14T19:06:49.896576,1.00257889,.0039536,55.2501,158.6203,216.6664,322.6164,0,U,44337,999,2594,0,-.139E-5,0
COSMOS 2539,2019-048A,2026-07-14T18:36:24.248160,1.00271435,.0000804,0.0354,102.3248,355.6930,125.7041,0,U,44457,999,2550,0,.72E-6,0
EDRS-C,2019-049A,2026-07-14T14:05:22.714080,1.00271140,.0000893,0.0172,104.9935,24.4612,156.8304,0,U,44475,999,2548,0,-.27E-5,0
INTELSAT 39 (IS-39),2019-049B,2026-07-13T22:12:21.718368,1.00272225,.00007329,0.0241,49.4551,282.1376,355.2527,0,U,44476,999,2539,0,0,0
AMOS-17,2019-050A,2026-07-14T20:03:19.301184,1.00273499,.0001315,0.0160,21.0743,98.9788,130.4621,0,U,44479,999,2546,0,.101E-5,0
AEHF-5 (USA 292),2019-051A,2026-07-14T19:41:51.631872,1.00273862,.0064978,1.4318,338.3703,357.5915,345.2343,0,U,44481,999,2553,0,-.265E-5,0
EUTELSAT 5 WEST B,2019-067A,2026-07-14T15:06:19.024704,1.00269913,.0003096,0.0701,333.5012,138.5371,42.0158,0,U,44624,999,2471,0,-.51E-6,0
MEV-1,2019-067B,2026-06-16T22:18:40.152960,1.00269616,.00027946,0.8740,268.9828,179.8034,307.2103,0,U,44625,999,6174,0,-.149E-5,0
TJS-4,2019-070A,2026-07-14T17:01:24.225888,1.00257855,.0001386,0.1149,260.5370,318.2730,52.6242,0,U,44637,999,2481,0,-.175E-5,0
TIBA-1,2019-080A,2026-07-14T20:58:38.588736,1.00270659,.0001886,0.0520,15.1672,111.2490,156.4432,0,U,44800,999,2433,0,.147E-5,0
INMARSAT GX5,2019-080B,2026-07-14T19:11:04.329888,1.00272518,.0002257,0.0350,357.6926,129.0419,104.7134,0,U,44801,999,706,0,.67E-6,0
JCSAT-18 (KACIFIC 1),2019-091A,2026-07-14T14:52:04.546848,1.00269316,.0000501,0.0546,235.7654,26.7509,42.9657,0,U,44868,999,2428,0,-.209E-5,0
ELEKTRO-L 3,2019-095A,2026-07-14T21:54:18.690912,1.00271044,.0001119,0.3255,82.0883,20.1992,235.0422,0,U,44903,999,2398,0,-.105E-5,0
